[
    {
        "OBJECT_NAME": "KNACKSAT-2",
        "OBJECT_ID": "1998-067XZ",
        "EPOCH": "2026-06-07T19:16:13.946880",
        "MEAN_MOTION": 15.59121118,
        "ECCENTRICITY": 0.0010362,
        "INCLINATION": 51.6303,
        "RA_OF_ASC_NODE": 341.6515,
        "ARG_OF_PERICENTER": 174.213,
        "MEAN_ANOMALY": 185.8984,
        "EPHEMERIS_TYPE": 0,
        "CLASSIFICATION_TYPE": "U",
        "NORAD_CAT_ID": 67683,
        "ELEMENT_SET_NO": 999,
        "REV_AT_EPOCH": 1881,
        "BSTAR": 0.00061258,
        "MEAN_MOTION_DOT": 0.00048726,
        "MEAN_MOTION_DDOT": 0
    },
    {
        "OBJECT_NAME": "CORAL",
        "OBJECT_ID": "1998-067YA",
        "EPOCH": "2026-06-07T17:49:07.387104",
        "MEAN_MOTION": 15.73220588,
        "ECCENTRICITY": 0.0009848,
        "INCLINATION": 51.6256,
        "RA_OF_ASC_NODE": 336.7135,
        "ARG_OF_PERICENTER": 196.0611,
        "MEAN_ANOMALY": 164.0077,
        "EPHEMERIS_TYPE": 0,
        "CLASSIFICATION_TYPE": "U",
        "NORAD_CAT_ID": 67684,
        "ELEMENT_SET_NO": 999,
        "REV_AT_EPOCH": 1887,
        "BSTAR": 0.0011637,
        "MEAN_MOTION_DOT": 0.00166821,
        "MEAN_MOTION_DDOT": 0
    },
    {
        "OBJECT_NAME": "GXIBA-1",
        "OBJECT_ID": "1998-067YB",
        "EPOCH": "2026-06-07T18:00:27.608256",
        "MEAN_MOTION": 15.60548421,
        "ECCENTRICITY": 0.001154,
        "INCLINATION": 51.6294,
        "RA_OF_ASC_NODE": 341.2956,
        "ARG_OF_PERICENTER": 172.2654,
        "MEAN_ANOMALY": 187.8519,
        "EPHEMERIS_TYPE": 0,
        "CLASSIFICATION_TYPE": "U",
        "NORAD_CAT_ID": 67685,
        "ELEMENT_SET_NO": 999,
        "REV_AT_EPOCH": 1881,
        "BSTAR": 0.00062566,
        "MEAN_MOTION_DOT": 0.00052644,
        "MEAN_MOTION_DDOT": 0
    },
    {
        "OBJECT_NAME": "UITMSAT-2",
        "OBJECT_ID": "1998-067YC",
        "EPOCH": "2026-06-07T18:44:12.124896",
        "MEAN_MOTION": 15.63441273,
        "ECCENTRICITY": 0.0007476,
        "INCLINATION": 51.6286,
        "RA_OF_ASC_NODE": 339.9975,
        "ARG_OF_PERICENTER": 162.8307,
        "MEAN_ANOMALY": 197.2942,
        "EPHEMERIS_TYPE": 0,
        "CLASSIFICATION_TYPE": "U",
        "NORAD_CAT_ID": 67686,
        "ELEMENT_SET_NO": 999,
        "REV_AT_EPOCH": 1883,
        "BSTAR": 0.00080948,
        "MEAN_MOTION_DOT": 0.00076518,
        "MEAN_MOTION_DDOT": 0
    },
    {
        "OBJECT_NAME": "LEOPARD",
        "OBJECT_ID": "1998-067YD",
        "EPOCH": "2026-06-08T00:41:44.252160",
        "MEAN_MOTION": 15.60036764,
        "ECCENTRICITY": 0.0007815,
        "INCLINATION": 51.6312,
        "RA_OF_ASC_NODE": 340.1673,
        "ARG_OF_PERICENTER": 156.2715,
        "MEAN_ANOMALY": 203.8639,
        "EPHEMERIS_TYPE": 0,
        "CLASSIFICATION_TYPE": "U",
        "NORAD_CAT_ID": 67687,
        "ELEMENT_SET_NO": 999,
        "REV_AT_EPOCH": 1877,
        "BSTAR": 0.00067943,
        "MEAN_MOTION_DOT": 0.00056026,
        "MEAN_MOTION_DDOT": 0
    },
    {
        "OBJECT_NAME": "HMU-SAT2",
        "OBJECT_ID": "1998-067YE",
        "EPOCH": "2026-06-07T18:16:33.820320",
        "MEAN_MOTION": 15.62077,
        "ECCENTRICITY": 0.000754,
        "INCLINATION": 51.6304,
        "RA_OF_ASC_NODE": 340.6288,
        "ARG_OF_PERICENTER": 157.5854,
        "MEAN_ANOMALY": 202.5471,
        "EPHEMERIS_TYPE": 0,
        "CLASSIFICATION_TYPE": "U",
        "NORAD_CAT_ID": 67688,
        "ELEMENT_SET_NO": 999,
        "REV_AT_EPOCH": 1874,
        "BSTAR": 0.00071244,
        "MEAN_MOTION_DOT": 0.00063666,
        "MEAN_MOTION_DDOT": 0
    },
    {
        "OBJECT_NAME": "CREW DRAGON 12",
        "OBJECT_ID": "2026-031A",
        "EPOCH": "2026-06-07T21:37:51.172608",
        "MEAN_MOTION": 15.49658997,
        "ECCENTRICITY": 0.0006929,
        "INCLINATION": 51.6338,
        "RA_OF_ASC_NODE": 346.0598,
        "ARG_OF_PERICENTER": 145.252,
        "MEAN_ANOMALY": 214.8923,
        "EPHEMERIS_TYPE": 0,
        "CLASSIFICATION_TYPE": "U",
        "NORAD_CAT_ID": 67796,
        "ELEMENT_SET_NO": 999,
        "REV_AT_EPOCH": 57035,
        "BSTAR": 0.00012894,
        "MEAN_MOTION_DOT": 6.825e-5,
        "MEAN_MOTION_DDOT": 0
    },
    {
        "OBJECT_NAME": "PROGRESS-MS 33",
        "OBJECT_ID": "2026-058A",
        "EPOCH": "2026-06-07T21:37:51.172608",
        "MEAN_MOTION": 15.49658997,
        "ECCENTRICITY": 0.0006929,
        "INCLINATION": 51.6338,
        "RA_OF_ASC_NODE": 346.0598,
        "ARG_OF_PERICENTER": 145.252,
        "MEAN_ANOMALY": 214.8923,
        "EPHEMERIS_TYPE": 0,
        "CLASSIFICATION_TYPE": "U",
        "NORAD_CAT_ID": 68319,
        "ELEMENT_SET_NO": 999,
        "REV_AT_EPOCH": 57035,
        "BSTAR": 0.00012894,
        "MEAN_MOTION_DOT": 6.825e-5,
        "MEAN_MOTION_DDOT": 0
    },
    {
        "OBJECT_NAME": "CYGNUS NG-24",
        "OBJECT_ID": "2026-079A",
        "EPOCH": "2026-06-06T20:52:03.049536",
        "MEAN_MOTION": 15.4964183,
        "ECCENTRICITY": 0.00069819,
        "INCLINATION": 51.6338,
        "RA_OF_ASC_NODE": 351.1688,
        "ARG_OF_PERICENTER": 142.0515,
        "MEAN_ANOMALY": 218.0967,
        "EPHEMERIS_TYPE": 0,
        "CLASSIFICATION_TYPE": "U",
        "NORAD_CAT_ID": 68689,
        "ELEMENT_SET_NO": 999,
        "REV_AT_EPOCH": 57015,
        "BSTAR": 0.00016637138,
        "MEAN_MOTION_DOT": 8.937e-5,
        "MEAN_MOTION_DDOT": 0
    },
    {
        "OBJECT_NAME": "PROGRESS-MS 34",
        "OBJECT_ID": "2026-093A",
        "EPOCH": "2026-06-06T20:52:03.049536",
        "MEAN_MOTION": 15.4964183,
        "ECCENTRICITY": 0.00069819,
        "INCLINATION": 51.6338,
        "RA_OF_ASC_NODE": 351.1688,
        "ARG_OF_PERICENTER": 142.0515,
        "MEAN_ANOMALY": 218.0967,
        "EPHEMERIS_TYPE": 0,
        "CLASSIFICATION_TYPE": "U",
        "NORAD_CAT_ID": 68837,
        "ELEMENT_SET_NO": 999,
        "REV_AT_EPOCH": 57015,
        "BSTAR": 0.00016637138,
        "MEAN_MOTION_DOT": 8.937e-5,
        "MEAN_MOTION_DDOT": 0
    },
    {
        "OBJECT_NAME": "TIANZHOU-10",
        "OBJECT_ID": "2026-102A",
        "EPOCH": "2026-06-06T20:46:47.642880",
        "MEAN_MOTION": 15.60367779,
        "ECCENTRICITY": 0.00089466,
        "INCLINATION": 41.4717,
        "RA_OF_ASC_NODE": 24.7959,
        "ARG_OF_PERICENTER": 356.7264,
        "MEAN_ANOMALY": 3.3515,
        "EPHEMERIS_TYPE": 0,
        "CLASSIFICATION_TYPE": "U",
        "NORAD_CAT_ID": 69049,
        "ELEMENT_SET_NO": 999,
        "REV_AT_EPOCH": 420,
        "BSTAR": 0.00029301982,
        "MEAN_MOTION_DOT": 0.00024497,
        "MEAN_MOTION_DDOT": 0
    },
    {
        "OBJECT_NAME": "DRAGON CRS-34",
        "OBJECT_ID": "2026-107A",
        "EPOCH": "2026-06-07T21:37:51.172608",
        "MEAN_MOTION": 15.49658997,
        "ECCENTRICITY": 0.0006929,
        "INCLINATION": 51.6338,
        "RA_OF_ASC_NODE": 346.0598,
        "ARG_OF_PERICENTER": 145.252,
        "MEAN_ANOMALY": 214.8923,
        "EPHEMERIS_TYPE": 0,
        "CLASSIFICATION_TYPE": "U",
        "NORAD_CAT_ID": 69103,
        "ELEMENT_SET_NO": 999,
        "REV_AT_EPOCH": 57035,
        "BSTAR": 0.00012894,
        "MEAN_MOTION_DOT": 6.825e-5,
        "MEAN_MOTION_DDOT": 0
    }
]