KNACKSAT-2              
1 67683U 98067XZ  26158.80293920  .00048726  00000+0  61258-3 0  9996
2 67683  51.6303 341.6515 0010362 174.2130 185.8984 15.59121118 18810
CORAL                   
1 67684U 98067YA  26158.74244661  .00166821  00000+0  11637-2 0  9990
2 67684  51.6256 336.7135 0009848 196.0611 164.0077 15.73220588 18879
GXIBA-1                 
1 67685U 98067YB  26158.75031954  .00052644  00000+0  62566-3 0  9996
2 67685  51.6294 341.2956 0011540 172.2654 187.8519 15.60548421 18812
UITMSAT-2               
1 67686U 98067YC  26158.78069589  .00076518  00000+0  80948-3 0  9995
2 67686  51.6286 339.9975 0007476 162.8307 197.2942 15.63441273 18839
LEOPARD                 
1 67687U 98067YD  26159.02898440  .00056026  00000+0  67943-3 0  9992
2 67687  51.6312 340.1673 0007815 156.2715 203.8639 15.60036764 18778
HMU-SAT2                
1 67688U 98067YE  26158.76150255  .00063666  00000+0  71244-3 0  9995
2 67688  51.6304 340.6288 0007540 157.5854 202.5471 15.62077000 18747
CREW DRAGON 12          
1 67796U 26031A   26158.90128672  .00006825  00000+0  12894-3 0  9991
2 67796  51.6338 346.0598 0006929 145.2520 214.8923 15.49658997570355
PROGRESS-MS 33          
1 68319U 26058A   26158.90128672  .00006825  00000+0  12894-3 0  9992
2 68319  51.6338 346.0598 0006929 145.2520 214.8923 15.49658997570357
CYGNUS NG-24            
1 68689U 26079A   26157.86947974  .00008937  00000+0  16637-3 0  9998
2 68689  51.6338 351.1688 0006981 142.0515 218.0967 15.49641830570151
PROGRESS-MS 34          
1 68837U 26093A   26157.86947974  .00008937  00000+0  16637-3 0  9999
2 68837  51.6338 351.1688 0006981 142.0515 218.0967 15.49641830570156
TIANZHOU-10             
1 69049U 26102A   26157.86582920  .00024497  00000+0  29302-3 0  9994
2 69049  41.4717  24.7959 0008946 356.7264   3.3515 15.60367779  4204
DRAGON CRS-34           
1 69103U 26107A   26158.90128672  .00006825  00000+0  12894-3 0  9999
2 69103  51.6338 346.0598 0006929 145.2520 214.8923 15.49658997570359
